LEMUR-2-LLOYD           
1 60577U 24149DP  26068.46001441  .00012007  00000+0  80143-3 0  9995
2 60577  97.6780 149.6779 0005186 125.6096 234.5616 15.07168338 85367
STARLINK-34748          
1 64848U 25152G   26068.57907688 -.00000072  00000+0 -76120-6 0  9999
2 64848  97.5998 285.4411 0003972 100.2475 259.9200 15.05633159 35401
